stk.v.9.0

# WrittenBy    STK_v9.2.1

BEGIN Ephemeris

NumberOfEphemerisPoints 91

ScenarioEpoch            19 May 2020 04:00:00.000

# Epoch in JDate format: 2458988.66666666666667
# Epoch in YYDDD format:   20140.16666666666667


InterpolationMethod     Lagrange

InterpolationSamplesM1      5

CentralBody             Earth

CoordinateSystem        ICRF 

# Time of first point: 19 May 2020 04:00:00.000000000 UTCG = 2458988.66666666666667 JDate = 20140.16666666666667 YYDDD

EphemerisTimePosVel

0.00000000000000e+000 3.32617171753777e+005 5.93626034718461e+006 -3.55657998620405e+006 -5.46616587744362e+003 -2.47396667660219e+003 -4.64048354910669e+003
6.00000000000000e+001 4.16565857470402e+003 5.77512590377654e+006 -3.82713806042934e+006 -5.47828066435895e+003 -2.89524987793154e+003 -4.37487567743874e+003
1.20000000000000e+002 -3.24303823375314e+005 5.58908017378969e+006 -4.08118758841886e+006 -5.46676462107895e+003 -3.30404427804200e+003 -4.09039656667350e+003
1.80000000000000e+002 -6.51374405003971e+005 5.37892567453255e+006 -4.31763271517267e+006 -5.43166742261662e+003 -3.69858652239851e+003 -3.78827333129676e+003
2.40000000000000e+002 -9.75635251443560e+005 5.14556891766287e+006 -4.53545352313210e+006 -5.37314046244521e+003 -4.07717473383331e+003 -3.46980919458436e+003
3.00000000000000e+002 -1.29568764775582e+006 4.89001649890557e+006 -4.73371043164380e+006 -5.29143619945510e+003 -4.43817585367590e+003 -3.13637786708510e+003
3.60000000000000e+002 -1.61015103235689e+006 4.61337075605301e+006 -4.91154824988657e+006 -5.18690706896006e+003 -4.78003268603107e+003 -2.78941762105348e+003
4.20000000000000e+002 -1.91766895213685e+006 4.31682501397741e+006 -5.06819986577861e+006 -5.06000396245042e+003 -5.10127061481918e+003 -2.43042508639236e+003
4.80000000000000e+002 -2.21691491358623e+006 4.00165843716584e+006 -5.20298955495275e+006 -4.91127428265069e+003 -5.40050396460432e+003 -2.06094879486703e+003
5.40000000000000e+002 -2.50659810469029e+006 3.66923051198203e+006 -5.31533589552647e+006 -4.74135958227121e+003 -5.67644197777281e+003 -1.68258250043812e+003
6.00000000000000e+002 -2.78546896290947e+006 3.32097518245577e+006 -5.40475427609340e+006 -4.55099279663940e+003 -5.92789438227887e+003 -1.29695830452633e+003
6.60000000000000e+002 -3.05232456522817e+006 2.95839466489560e+006 -5.47085898611826e+006 -4.34099508214751e+003 -6.15377652594107e+003 -9.05739615863540e+002
7.20000000000000e+002 -3.30601381702174e+006 2.58305296800561e+006 -5.51336487971799e+006 -4.11227227415459e+003 -6.35311405514228e+003 -5.10613975298320e+002
7.80000000000000e+002 -3.54544241735915e+006 2.19656914645786e+006 -5.53208860565238e+006 -3.86581097962159e+003 -6.52504711775137e+003 -1.13285776506368e+002
8.40000000000000e+002 -3.76957757932327e+006 1.80061031702124e+006 -5.52694939821860e+006 -3.60267432133422e+003 -6.66883407213725e+003 2.84531085994545e+002
9.00000000000000e+002 -3.97745248498752e+006 1.39688446737218e+006 -5.49796942563797e+006 -3.32399735207110e+003 -6.78385468627613e+003 6.81120609811960e+002
9.60000000000000e+002 -4.16817045583201e+006 9.87133088606708e+005 -5.44527369443226e+006 -3.03098215849839e+003 -6.86961281315250e+003 1.07477208673854e+003
1.02000000000000e+003 -4.34090882060998e+006 5.73123663233870e+005 -5.36908951020197e+006 -2.72489267591041e+003 -6.92573853091347e+003 1.46378748197518e+003
1.08000000000000e+003 -4.49492246398026e+006 1.56642041053934e+005 -5.26974549713258e+006 -2.40704923618330e+003 -6.95198973854464e+003 1.84648875868671e+003
1.14000000000000e+003 -4.62954704059853e+006 -2.60515264191616e+005 -5.14767018045810e+006 -2.07882287245924e+003 -6.94825320018460e+003 2.22122511629542e+003
1.20000000000000e+003 -4.74420184080329e+006 -6.76548824169520e+005 -5.00339013799669e+006 -1.74162940512823e+003 -6.91454503357340e+003 2.58638011128972e+003
1.26000000000000e+003 -4.83839229553524e+006 -1.08966405787641e+006 -4.83752772873154e+006 -1.39692333461798e+003 -6.85101064052780e+003 2.94037862983181e+003
1.32000000000000e+003 -4.91171210968501e+006 -1.49807897265127e+006 -4.65079840823517e+006 -1.04619156733556e+003 -6.75792407974351e+003 3.28169368208791e+003
1.38000000000000e+003 -4.96384501466682e+006 -1.90003185088751e+006 -4.44400764251698e+006 -6.90947001824258e+002 -6.63568688462966e+003 3.60885298897321e+003
1.44000000000000e+003 -4.99456613265847e+006 -2.29378884928755e+006 -4.21804743360647e+006 -3.32722002802066e+002 -6.48482633127493e+003 3.92044533289927e+003
1.50000000000000e+003 -5.00374294662275e+006 -2.67765147788027e+006 -3.97389247185901e+006 2.69382087680365e+001 -6.30599316401642e+003 4.21512664512983e+003
1.56000000000000e+003 -4.99133587192611e+006 -3.04996392654012e+006 -3.71259593158164e+006 3.86482221063921e+002 -6.09995878842237e+003 4.49162580348664e+003
1.62000000000000e+003 -4.95739842708895e+006 -3.40912020740470e+006 -3.43528492811440e+006 7.44359123494680e+002 -5.86761194379665e+003 4.74875011539689e+003
1.68000000000000e+003 -4.90207700293081e+006 -3.75357108238147e+006 -3.14315565596353e+006 1.09902519662893e+003 -5.60995486955855e+003 4.98539046263058e+003
1.74000000000000e+003 -4.82561023110650e+006 -4.08183074586173e+006 -2.83746822895820e+006 1.44895057110366e+003 -5.32809898203429e+003 5.20052608553601e+003
1.80000000000000e+003 -4.72832795475683e+006 -4.39248323381536e+006 -2.51954124468822e+006 1.79262582679023e+003 -5.02326008030859e+003 5.39322898613620e+003
1.86000000000000e+003 -4.61064980571417e+006 -4.68418853162054e+006 -2.19074609666923e+006 2.12856850375146e+003 -4.69675310181621e+003 5.56266793109332e+003
1.92000000000000e+003 -4.47308339440014e+006 -4.95568835428208e+006 -1.85250105876994e+006 2.45532949690474e+003 -4.34998645029530e+003 5.70811203727412e+003
1.98000000000000e+003 -4.31622212022332e+006 -5.20581157410488e+006 -1.50626516741891e+006 2.77149930680734e+003 -3.98445592056937e+003 5.82893392444991e+003
2.04000000000000e+003 -4.14074261192208e+006 -5.43347927241035e+006 -1.15353192797982e+006 3.07571411960076e+003 -3.60173824636354e+003 5.92461242153168e+003
2.10000000000000e+003 -3.94740180889355e+006 -5.63770939350449e+006 -7.95822872443465e+005 3.36666168988824e+003 -3.20348429898690e+003 5.99473481466696e+003
2.16000000000000e+003 -3.73703369609873e+006 -5.81762098082301e+006 -4.34680996225508e+005 3.64308700116908e+003 -2.79141196621878e+003 6.03899862750112e+003
2.22000000000000e+003 -3.51054570662777e+006 -5.97243797698028e+006 -7.16641023806208e+004 3.90379767941340e+003 -2.36729874211626e+003 6.05721292592379e+003
2.28000000000000e+003 -3.26891480744318e+006 -6.10149257133065e+006 2.91661918056753e+005 4.14766913642553e+003 -1.93297405970702e+003 6.04929914167251e+003
2.34000000000000e+003 -3.01318328518533e+006 -6.20422808060215e+006 6.53729840619573e+005 4.37364942080991e+003 -1.49031139964101e+003 6.01529141124070e+003
2.40000000000000e+003 -2.74445425021826e+006 -6.28020135017687e+006 1.01297786770719e+006 4.58076375561462e+003 -1.04122020884050e+003 5.95533642862824e+003
2.46000000000000e+003 -2.46388687830951e+006 -6.32908466565995e+006 1.36785636547530e+006 4.76811874307918e+003 -5.87637664007841e+002 5.86969281256978e+003
2.52000000000000e+003 -2.17269141046902e+006 -6.35066716649161e+006 1.71683454825691e+006 4.93490621834928e+003 -1.31520315519561e+002 5.75872999097024e+003
2.58000000000000e+003 -1.87212393251563e+006 -6.34485575550441e+006 2.05840708168082e+006 5.08040673553518e+003 3.25164352248923e+002 5.62292660735957e+003
2.64000000000000e+003 -1.56348095688981e+006 -6.31167550050240e+006 2.39110057600464e+006 5.20399267107656e+003 7.80446407762883e+002 5.46286845624058e+003
2.70000000000000e+003 -1.24809383008418e+006 -6.25126952612993e+006 2.71347994165318e+006 5.30513093102730e+003 1.23236196972378e+003 5.27924595623587e+003
2.76000000000000e+003 -9.27322989815598e+005 -6.16389839649655e+006 3.02415457954710e+006 5.38338525058216e+003 1.67896167836684e+003 5.07285117193349e+003
2.82000000000000e+003 -6.02552096710885e+005 -6.04993899122105e+006 3.32178437951977e+006 5.43841807592621e+003 2.11831910411919e+003 4.84457439727780e+003
2.88000000000000e+003 -2.75182065819411e+005 -5.90988287974285e+006 3.60508550094762e+006 5.46999202028968e+003 2.54853905734761e+003 4.59540031524327e+003
2.94000000000000e+003 5.33749763021515e+004 -5.74433420091335e+006 3.87283591065913e+006 5.47797088792729e+003 2.96776576335118e+003 4.32640375035647e+003
3.00000000000000e+003 3.81701782866439e+005 -5.55400705701356e+006 4.12388065423445e+006 5.46232026160528e+003 3.37419086733580e+003 4.03874503238828e+003
3.06000000000000e+003 7.08382100218362e+005 -5.33972243343920e+006 4.35713683795740e+006 5.42310765106178e+003 3.76606123484052e+003 3.73366499121488e+003
3.12000000000000e+003 1.03200677691416e+006 -5.10240465734023e+006 4.57159829993023e+006 5.36050220180028e+003 4.14168651396838e+003 3.41247960443777e+003
3.18000000000000e+003 1.35117984216472e+006 -4.84307741049071e+006 4.76633995020198e+006 5.27477396547228e+003 4.49944642680155e+003 3.07657432085030e+003
3.24000000000000e+003 1.66452452742349e+006 -4.56285931358767e+006 4.94052176118888e+006 5.16629273499636e+003 4.83779775854896e+003 2.72739808423695e+003
3.30000000000000e+003 1.97068920514460e+006 -4.26295910102634e+006 5.09339239117431e+006 5.03552644943841e+003 5.15528101427840e+003 2.36645708328375e+003
3.36000000000000e+003 2.26835321909404e+006 -3.94467040696543e+006 5.22429242525779e+006 4.88303917553370e+003 5.45052671451890e+003 1.99530825456017e+003
3.42000000000000e+003 2.55623258106459e+006 -3.60936618517334e+006 5.33265721977329e+006 4.70948867455760e+003 5.72226130257709e+003 1.61555256659740e+003
3.48000000000000e+003 2.83308550942140e+006 -3.25849278672524e+006 5.41801933790707e+006 4.51562356504029e+003 5.96931263808593e+003 1.22882811403277e+003
3.54000000000000e+003 3.09771778558755e+006 -2.89356372109734e+006 5.48001056600924e+006 4.30228009356431e+003 6.19061505308927e+003 8.36803051608747e+002
END Ephemeris
